{
    "links": {
        "self": "http://www.neowsapp.com/rest/v1/neo/54079056?api_key=iIulBulltgU6a56xZRHN4H3l9WmuAYTsLGpBGhQ2"
    },
    "id": "54079056",
    "neo_reference_id": "54079056",
    "name": "(2020 UG6)",
    "designation": "2020 UG6",
    "nasa_jpl_url": "http://ssd.jpl.nasa.gov/sbdb.cgi?sstr=54079056",
    "absolute_magnitude_h": 24.004,
    "estimated_diameter": {
        "kilometers": {
            "estimated_diameter_min": 0.0420489327,
            "estimated_diameter_max": 0.0940242718
        },
        "meters": {
            "estimated_diameter_min": 42.0489326748,
            "estimated_diameter_max": 94.0242718422
        },
        "miles": {
            "estimated_diameter_min": 0.0261279873,
            "estimated_diameter_max": 0.0584239558
        },
        "feet": {
            "estimated_diameter_min": 137.9558202769,
            "estimated_diameter_max": 308.4785920308
        }
    },
    "is_potentially_hazardous_asteroid": false,
    "close_approach_data": [
        {
            "close_approach_date": "2014-10-17",
            "close_approach_date_full": "2014-Oct-17 06:04",
            "epoch_date_close_approach": 1413525840000,
            "relative_velocity": {
                "kilometers_per_second": "18.5047223414",
                "kilometers_per_hour": "66617.0004290828",
                "miles_per_hour": "41393.2134055043"
            },
            "miss_distance": {
                "astronomical": "0.3448177536",
                "lunar": "134.1341061504",
                "kilometers": "51584001.476744832",
                "miles": "32052812.2089974016"
            },
            "orbiting_body": "Earth"
        },
        {
            "close_approach_date": "2017-10-24",
            "close_approach_date_full": "2017-Oct-24 03:27",
            "epoch_date_close_approach": 1508815620000,
            "relative_velocity": {
                "kilometers_per_second": "16.7152948326",
                "kilometers_per_hour": "60175.0613974018",
                "miles_per_hour": "37390.4430110689"
            },
            "miss_distance": {
                "astronomical": "0.1826035127",
                "lunar": "71.0327664403",
                "kilometers": "27317096.554437949",
                "miles": "16974056.7014597362"
            },
            "orbiting_body": "Earth"
        },
        {
            "close_approach_date": "2020-10-30",
            "close_approach_date_full": "2020-Oct-30 22:16",
            "epoch_date_close_approach": 1604096160000,
            "relative_velocity": {
                "kilometers_per_second": "16.1677522601",
                "kilometers_per_hour": "58203.9081363773",
                "miles_per_hour": "36165.6450306284"
            },
            "miss_distance": {
                "astronomical": "0.1175253443",
                "lunar": "45.7173589327",
                "kilometers": "17581541.178296641",
                "miles": "10924663.1048340058"
            },
            "orbiting_body": "Earth"
        },
        {
            "close_approach_date": "2023-11-07",
            "close_approach_date_full": "2023-Nov-07 20:42",
            "epoch_date_close_approach": 1699389720000,
            "relative_velocity": {
                "kilometers_per_second": "17.1968371522",
                "kilometers_per_hour": "61908.6137479711",
                "miles_per_hour": "38467.6050257879"
            },
            "miss_distance": {
                "astronomical": "0.2512493071",
                "lunar": "97.7359804619",
                "kilometers": "37586361.181135877",
                "miles": "23355081.8484220226"
            },
            "orbiting_body": "Earth"
        },
        {
            "close_approach_date": "2026-11-14",
            "close_approach_date_full": "2026-Nov-14 17:51",
            "epoch_date_close_approach": 1794678660000,
            "relative_velocity": {
                "kilometers_per_second": "19.5375170565",
                "kilometers_per_hour": "70335.0614033244",
                "miles_per_hour": "43703.4719036379"
            },
            "miss_distance": {
                "astronomical": "0.4327994558",
                "lunar": "168.3589883062",
                "kilometers": "64745876.724839146",
                "miles": "40231222.2502503748"
            },
            "orbiting_body": "Earth"
        }
    ],
    "orbital_data": {
        "orbit_id": "6",
        "orbit_determination_date": "2020-11-19 05:21:33",
        "first_observation_date": "2020-10-19",
        "last_observation_date": "2020-11-17",
        "data_arc_in_days": 29,
        "observations_used": 27,
        "orbit_uncertainty": "7",
        "minimum_orbit_intersection": ".112691",
        "jupiter_tisserand_invariant": "3.473",
        "epoch_osculation": "2459000.5",
        "eccentricity": ".4722999383736802",
        "semi_major_axis": "2.093489024364284",
        "inclination": "28.02057575283544",
        "ascending_node_longitude": "216.3048694536569",
        "orbital_period": "1106.380364123453",
        "perihelion_distance": "1.104734287171057",
        "perihelion_argument": "183.1304472361446",
        "aphelion_distance": "3.082243761557511",
        "perihelion_time": "2459156.969245297530",
        "mean_anomaly": "309.0871944823981",
        "mean_motion": ".3253853843340899",
        "equinox": "J2000",
        "orbit_class": {
            "orbit_class_type": "AMO",
            "orbit_class_description": "Near-Earth asteroid orbits similar to that of 1221 Amor",
            "orbit_class_range": "1.017 AU < q (perihelion) < 1.3 AU"
        }
    },
    "is_sentry_object": false
}